IRIDIUM 33 [-]          
1 24946U 97051C   23106.58247857  .00000515  00000+0  17743-3 0  9990
2 24946  86.3823 115.3886 0009341 132.8900 227.3081 14.34007527339123
IRIDIUM 28 [-]          
1 24948U 97051E   23106.52070723  .00000752  00000+0  25156-3 0  9992
2 24948  86.3913 114.0820 0002409  97.7437 262.4033 14.36140898340031
IRIDIUM 36 [-]          
1 24967U 97056C   23106.56714849  .00000653  00000+0  21723-3 0  9992
2 24967  86.3969 145.7261 0002517  89.5028 270.6457 14.36238978338404
IRIDIUM 39 [-]          
1 25042U 97069D   23106.31328640  .00001269  00000+0  34164-3 0  9991
2 25042  86.3990 190.4960 0020727  73.5953 286.7526 14.47127152334223
IRIDIUM 38 [-]          
1 25043U 97069E   23106.36498482  .00000884  00000+0  29352-3 0  9994
2 25043  86.4031 206.2525 0002778 143.2482 216.8906 14.36717849332075
IRIDIUM 42 [-]          
1 25077U 97077A   23106.33302991  .00000782  00000+0  26766-3 0  9999
2 25077  86.4029 211.4659 0002261 111.8026 248.3411 14.35045560327446
IRIDIUM 44 [-]          
1 25078U 97077B   23106.30978276  .00000851  00000+0  27052-3 0  9998
2 25078  86.4031 195.5587 0004092 104.1350 256.0303 14.38811923329648
